[{"OBJECT_NAME":"GONETS-M 9","OBJECT_ID":"2014-036B","EPOCH":"2026-03-09T22:05:51.285408","MEAN_MOTION":12.4294741,"ECCENTRICITY":0.00239057,"INCLINATION":82.5158,"RA_OF_ASC_NODE":9.3157,"ARG_OF_PERICENTER":14.5584,"MEAN_ANOMALY":345.6179,"EPHEMERIS_TYPE":0,"CLASSIFICATION_TYPE":"U","NORAD_CAT_ID":40062,"ELEMENT_SET_NO":999,"REV_AT_EPOCH":53012,"BSTAR":0.00013590872,"MEAN_MOTION_DOT":2.9e-7,"MEAN_MOTION_DDOT":0},{"OBJECT_NAME":"COSMOS 1823 DEB","OBJECT_ID":"1987-020FE","EPOCH":"2026-03-09T22:36:27.148032","MEAN_MOTION":12.47492141,"ECCENTRICITY":0.0036069,"INCLINATION":73.5969,"RA_OF_ASC_NODE":55.3635,"ARG_OF_PERICENTER":263.6463,"MEAN_ANOMALY":96.0476,"EPHEMERIS_TYPE":0,"CLASSIFICATION_TYPE":"U","NORAD_CAT_ID":39830,"ELEMENT_SET_NO":999,"REV_AT_EPOCH":53511,"BSTAR":0.0019145097,"MEAN_MOTION_DOT":2.64e-6,"MEAN_MOTION_DDOT":0}]
